[{"OBJECT_NAME":"IRIDIUM 130","OBJECT_ID":"2017-083D","EPOCH":"2026-03-09T21:39:51.158880","MEAN_MOTION":14.3421742,"ECCENTRICITY":0.00018247,"INCLINATION":86.4028,"RA_OF_ASC_NODE":3.7574,"ARG_OF_PERICENTER":90.7485,"MEAN_ANOMALY":269.392,"EPHEMERIS_TYPE":0,"CLASSIFICATION_TYPE":"U","NORAD_CAT_ID":43073,"ELEMENT_SET_NO":999,"REV_AT_EPOCH":42988,"BSTAR":-6.674968e-6,"MEAN_MOTION_DOT":1.0e-8,"MEAN_MOTION_DDOT":0},{"OBJECT_NAME":"NOAA 16 DEB","OBJECT_ID":"2000-055JV","EPOCH":"2026-03-08T16:58:57.143712","MEAN_MOTION":14.32938301,"ECCENTRICITY":0.00179259,"INCLINATION":98.7282,"RA_OF_ASC_NODE":165.5931,"ARG_OF_PERICENTER":209.3673,"MEAN_ANOMALY":150.6504,"EPHEMERIS_TYPE":0,"CLASSIFICATION_TYPE":"U","NORAD_CAT_ID":41376,"ELEMENT_SET_NO":999,"REV_AT_EPOCH":52512,"BSTAR":0.0023811477,"MEAN_MOTION_DOT":6.481e-5,"MEAN_MOTION_DDOT":0}]
